{
  "norad_id": 66384,
  "name": "STARLINK-35662",
  "history": [
    {
      "epoch": "2026-03-28T13:06:58.895136Z",
      "apogee_km": 476.08730718810057,
      "perigee_km": 474.27666031259287,
      "latitude_deg": -1.414980609315432e-05,
      "longitude_deg": 106.51018751423075,
      "height_km": 475.98239873095326,
      "semi_major_axis_km": 6853.318983750346,
      "eccentricity": 0.0001321,
      "inclination_deg": 53.1585,
      "raan_deg": 129.221,
      "arg_perigee_deg": 83.8208,
      "mean_anomaly_deg": 276.2943,
      "mean_motion_rev_day": 15.30211081
    },
    {
      "epoch": "2026-03-29T01:39:24.524640Z",
      "apogee_km": 475.8177510944397,
      "perigee_km": 474.59922626655225,
      "latitude_deg": -2.8704826680824718e-05,
      "longitude_deg": -84.54273116220622,
      "height_km": 476.1467099235756,
      "semi_major_axis_km": 6853.345488680496,
      "eccentricity": 8.89e-05,
      "inclination_deg": 53.1578,
      "raan_deg": 126.7899,
      "arg_perigee_deg": 93.7515,
      "mean_anomaly_deg": 266.3587,
      "mean_motion_rev_day": 15.30202204
    }
  ]
}